NORAD_CAT_ID,OBJECT_NAME,OBJECT_TYPE,EPOCH,MEAN_MOTION,ECCENTRICITY,INCLINATION,RA_OF_ASC_NODE,ARG_OF_PERICENTER,MEAN_ANOMALY,BSTAR,MEAN_MOTION_DOT,MEAN_MOTION_DDOT,TLE_LINE0,TLE_LINE1,TLE_LINE2,SEMIMAJOR_AXIS,PERIOD,APOGEE,PERIGEE,DECAYED
56796.0,STARLINK-6049,PAYLOAD,2023-12-17 19:01:55,14.98326151,0.0002684,69.999,234.1532,279.9276,80.158,0.00012401,1.387e-05,0.0,0 STARLINK-6049,1 56796U 23078AF  23351.79300685  .00001387  00000-0  12401-3 0  9995,2 56796  69.9990 234.1532 0002684 279.9276  80.1580 14.98326151 31173,6950.205,96.107,573.935,570.204,0.0
56796.0,STARLINK-6049,PAYLOAD,2023-12-17 22:14:11,14.98333855,0.000218,69.9999,233.8199,251.6864,108.4058,0.00020263,2.326e-05,0.0,0 STARLINK-6049,1 56796U 23078AF  23351.92651956  .00002326  00000-0  20263-3 0  9999,2 56796  69.9999 233.8199 0002180 251.6864 108.4058 14.98333855 30934,6950.181,96.107,573.561,570.531,0.0
56796.0,STARLINK-6049,PAYLOAD,2023-12-18 01:26:27,14.98331669,0.0001962,70.0006,233.4835,244.0863,116.0094,0.00020174,2.315e-05,0.0,0 STARLINK-6049,1 56796U 23078AF  23352.06004081  .00002315  00000-0  20174-3 0  9995,2 56796  70.0006 233.4835 0001962 244.0863 116.0094 14.98331669 31219,6950.188,96.107,573.416,570.689,0.0
56796.0,STARLINK-6049,PAYLOAD,2023-12-18 22:16:12,14.98334848,0.0002275,70.0004,231.2964,247.6954,112.3964,0.00014291,1.613e-05,0.0,0 STARLINK-6049,1 56796U 23078AF  23352.92791916  .00001613  00000-0  14291-3 0  9993,2 56796  70.0004 231.2964 0002275 247.6954 112.3964 14.98334848 31086,6950.178,96.107,573.624,570.462,0.0
56796.0,STARLINK-6049,PAYLOAD,2023-12-19 01:28:28,14.98335678,0.0002279,69.9999,230.9592,251.6792,108.412,0.00010201,1.125e-05,0.0,0 STARLINK-6049,1 56796U 23078AF  23353.06143932  .00001125  00000-0  10201-3 0  9993,2 56796  69.9999 230.9592 0002279 251.6792 108.4120 14.98335678 31361,6950.175,96.107,573.624,570.456,0.0
56796.0,STARLINK-6049,PAYLOAD,2023-12-20 01:30:29,14.98333657,0.0002296,69.9998,228.4334,242.9937,117.0988,-0.00012431,-1.576e-05,0.0,0 STARLINK-6049,1 56796U 23078AF  23354.06284239 -.00001576  00000-0 -12431-3 0  9999,2 56796  69.9998 228.4334 0002296 242.9937 117.0988 14.98333657 31519,6950.182,96.107,573.642,570.451,0.0
56796.0,STARLINK-6049,PAYLOAD,2023-12-20 19:07:57,14.98339127,0.0002475,69.9993,226.5813,255.8809,104.2075,-3.1184e-05,-4.65e-06,0.0,0 STARLINK-6049,1 56796U 23078AF  23354.79719294 -.00000465  00000-0 -31184-4 0  9996,2 56796  69.9993 226.5813 0002475 255.8809 104.2075 14.98339127 31620,6950.165,96.106,573.75,570.31,0.0
56796.0,STARLINK-6049,PAYLOAD,2023-12-20 22:20:13,14.9833686,0.00025,69.9993,226.245,253.4414,106.647,-1.6848e-06,-1.13e-06,0.0,0 STARLINK-6049,1 56796U 23078AF  23354.93071266 -.00000113  00000-0 -16848-5 0  9993,2 56796  69.9993 226.2450 0002500 253.4414 106.6470 14.98336860 31388,6950.172,96.107,573.774,570.299,0.0
56796.0,STARLINK-6049,PAYLOAD,2023-12-21 01:32:29,14.98339213,0.000248,69.9992,225.908,257.1112,102.977,-2.5257e-05,-3.94e-06,0.0,0 STARLINK-6049,1 56796U 23078AF  23355.06423136 -.00000394  00000-0 -25257-4 0  9999,2 56796  69.9992 225.9080 0002480 257.1112 102.9770 14.98339213 31405,6950.164,96.106,573.753,570.306,0.0
56796.0,STARLINK-6049,PAYLOAD,2023-12-21 15:57:42,14.98329599,0.0002516,69.9993,224.3932,253.949,106.1392,4.1217e-05,3.99e-06,0.0,0 STARLINK-6049,1 56796U 23078AF  23355.66507343  .00000399  00000-0  41217-4 0  9995,2 56796  69.9993 224.3932 0002516 253.9490 106.1392 14.98329599 31758,6950.194,96.107,573.808,570.31,0.0
56796.0,STARLINK-6049,PAYLOAD,2023-12-21 22:22:14,14.98328761,0.0002533,69.9992,223.72,254.4146,105.6734,2.6102e-05,2.18e-06,0.0,0 STARLINK-6049,1 56796U 23078AF  23355.93211437  .00000218  00000-0  26102-4 0  9997,2 56796  69.9992 223.7200 0002533 254.4146 105.6734 14.98328761 31531,6950.197,96.107,573.822,570.301,0.0
56796.0,STARLINK-6049,PAYLOAD,2023-12-22 01:34:30,14.98328316,0.0002542,69.9991,223.3829,257.6181,102.4694,1.8734e-05,1.31e-06,0.0,0 STARLINK-6049,1 56796U 23078AF  23356.06563504  .00000131  00000-0  18734-4 0  9993,2 56796  69.9991 223.3829 0002542 257.6181 102.4694 14.98328316 31555,6950.198,96.107,573.83,570.296,0.0
56796.0,STARLINK-6049,PAYLOAD,2023-12-22 19:11:59,14.98332092,0.0002462,69.9992,221.5306,261.5175,98.5705,-4.0383e-05,-5.75e-06,0.0,0 STARLINK-6049,1 56796U 23078AF  23356.79999437 -.00000575  00000-0 -40383-4 0  9990,2 56796  69.9992 221.5306 0002462 261.5175  98.5705 14.98332092 31929,6950.186,96.107,573.763,570.34,0.0
56796.0,STARLINK-6049,PAYLOAD,2023-12-22 22:24:15,14.98331222,0.0002476,69.9991,221.1937,261.3555,98.7324,-5.7596e-05,-7.8e-06,0.0,0 STARLINK-6049,1 56796U 23078AF  23356.93351518 -.00000780  00000-0 -57596-4 0  9990,2 56796  69.9991 221.1937 0002476 261.3555  98.7324 14.98331222 31685,6950.189,96.107,573.775,570.333,0.0
56796.0,STARLINK-6049,PAYLOAD,2023-12-23 14:25:36,14.98356265,0.0002456,69.9989,219.5108,271.4245,88.6633,-0.00042103,-5.116e-05,0.0,0 STARLINK-6049,1 56796U 23078AF  23357.60111357 -.00005116  00000-0 -42103-3 0  9995,2 56796  69.9989 219.5108 0002456 271.4245  88.6633 14.98356265 31785,6950.112,96.105,573.684,570.27,0.0
56796.0,STARLINK-6049,PAYLOAD,2023-12-23 19:14:00,14.98355657,0.0002418,69.9991,219.0064,268.2204,91.8678,-0.0003641,-4.437e-05,0.0,0 STARLINK-6049,1 56796U 23078AF  23357.80138910 -.00004437  00000-0 -36410-3 0  9990,2 56796  69.9991 219.0064 0002418 268.2204  91.8678 14.98355657 32073,6950.114,96.105,573.659,570.298,0.0
56796.0,STARLINK-6049,PAYLOAD,2023-12-23 22:26:15,14.98350745,0.0002341,69.999,218.6697,265.8815,94.2076,-0.00024987,-3.075e-05,0.0,0 STARLINK-6049,1 56796U 23078AF  23357.93490725 -.00003075  00000-0 -24987-3 0  9992,2 56796  69.9990 218.6697 0002341 265.8815  94.2076 14.98350745 31830,6950.129,96.106,573.621,570.367,0.0
56796.0,STARLINK-6049,PAYLOAD,2023-12-24 14:27:36,14.98330719,0.0002597,69.9989,216.9864,265.0644,95.0219,2.7571e-05,2.36e-06,0.0,0 STARLINK-6049,1 56796U 23078AF  23358.60251155  .00000236  00000-0  27571-4 0  9996,2 56796  69.9989 216.9864 0002597 265.0644  95.0219 14.98330719 31938,6950.191,96.107,573.861,570.251,0.0
56796.0,STARLINK-6049,PAYLOAD,2023-12-24 19:16:01,14.98332045,0.0002557,69.999,216.4811,260.0567,100.0304,3.8052e-05,3.61e-06,0.0,0 STARLINK-6049,1 56796U 23078AF  23358.80278982  .00000361  00000-0  38052-4 0  9990,2 56796  69.9990 216.4811 0002557 260.0567 100.0304 14.98332045 32221,6950.187,96.107,573.829,570.274,0.0
56796.0,STARLINK-6049,PAYLOAD,2023-12-24 22:28:17,14.98331896,0.0002551,69.9989,216.1444,259.2504,100.8368,3.7862e-05,3.59e-06,0.0,0 STARLINK-6049,1 56796U 23078AF  23358.93630973  .00000359  00000-0  37862-4 0  9991,2 56796  69.9989 216.1444 0002551 259.2504 100.8368 14.98331896 31986,6950.187,96.107,573.825,570.279,0.0
56796.0,STARLINK-6049,PAYLOAD,2023-12-25 09:41:13,14.98330573,0.0002641,69.9986,214.9662,266.7821,93.3036,1.1224e-05,4.1e-07,0.0,0 STARLINK-6049,1 56796U 23078AF  23359.40363084  .00000041  00000-0  11224-4 0  9992,2 56796  69.9986 214.9662 0002641 266.7821  93.3036 14.98330573 32054,6950.191,96.107,573.892,570.221,0.0
56796.0,STARLINK-6049,PAYLOAD,2023-12-25 19:18:02,14.98329472,0.0002713,69.9984,213.955,264.9575,95.1275,-6.4044e-05,-8.57e-06,0.0,0 STARLINK-6049,1 56796U 23078AF  23359.80419323 -.00000857  00000-0 -64044-4 0  9999,2 56796  69.9984 213.9550 0002713 264.9575  95.1275 14.98329472 32379,6950.195,96.107,573.945,570.174,0.0
56796.0,STARLINK-6049,PAYLOAD,2023-12-25 22:30:18,14.98331408,0.0002696,69.9985,213.6186,265.45,94.6351,-3.903e-05,-5.59e-06,0.0,0 STARLINK-6049,1 56796U 23078AF  23359.93771119 -.00000559  00000-0 -39030-4 0  9993,2 56796  69.9985 213.6186 0002696 265.4500  94.6351 14.98331408 32131,6950.189,96.107,573.927,570.18,0.0
56796.0,STARLINK-6049,PAYLOAD,2023-12-26 14:31:38,14.9833179,0.0002741,69.9984,211.935,266.1952,93.8894,-2.7874e-05,-4.26e-06,0.0,0 STARLINK-6049,1 56796U 23078AF  23360.60531022 -.00000426  00000-0 -27874-4 0  9992,2 56796  69.9984 211.9350 0002741 266.1952  93.8894 14.98331790 32232,6950.187,96.107,573.957,570.147,0.0
56796.0,STARLINK-6049,PAYLOAD,2023-12-26 19:20:02,14.98331908,0.0002744,69.9985,211.4301,266.4414,93.6431,-2.4027e-05,-3.8e-06,0.0,0 STARLINK-6049,1 56796U 23078AF  23360.80558976 -.00000380  00000-0 -24027-4 0  9997,2 56796  69.9985 211.4301 0002744 266.4414  93.6431 14.98331908 32521,6950.187,96.107,573.959,570.145,0.0
56796.0,STARLINK-6049,PAYLOAD,2023-12-26 22:32:19,14.98331924,0.000275,69.9986,211.0937,266.8543,93.2301,-2.2397e-05,-3.6e-06,0.0,0 STARLINK-6049,1 56796U 23078AF  23360.93910956 -.00000360  00000-0 -22397-4 0  9997,2 56796  69.9986 211.0937 0002750 266.8543  93.2301 14.98331924 32280,6950.187,96.107,573.963,570.141,0.0
56796.0,STARLINK-6049,PAYLOAD,2023-12-27 11:21:19,14.98368328,0.000289,69.9987,209.7465,274.283,85.7999,0.00039906,4.676e-05,0.0,0 STARLINK-6049,1 56796U 23078AF  23361.47314786  .00004676  00000-0  39906-3 0  9991,2 56796  69.9987 209.7465 0002890 274.2830  85.7999 14.98368328 32623,6950.074,96.105,573.948,569.931,0.0
56796.0,STARLINK-6049,PAYLOAD,2023-12-27 14:33:35,14.98371206,0.0002809,69.9987,209.4104,271.0096,89.0741,0.00046047,5.411e-05,0.0,0 STARLINK-6049,1 56796U 23078AF  23361.60666109  .00005411  00000-0  46047-3 0  9997,2 56796  69.9987 209.4104 0002809 271.0096  89.0741 14.98371206 32383,6950.065,96.104,573.883,569.978,0.0
56796.0,STARLINK-6049,PAYLOAD,2023-12-27 19:22:03,14.98319777,0.0003094,69.9988,208.9055,273.5459,86.5346,-0.00012157,-1.543e-05,0.0,0 STARLINK-6049,1 56796U 23078AF  23361.80698534 -.00001543  00000-0 -12157-3 0  9995,2 56796  69.9988 208.9055 0003094 273.5459  86.5346 14.98319777 32670,6950.225,96.108,574.24,569.939,0.0
56796.0,STARLINK-6049,PAYLOAD,2023-12-27 22:34:19,14.98328536,0.0003018,69.9988,208.5689,266.5308,93.5506,-7.3474e-05,-9.7e-06,0.0,0 STARLINK-6049,1 56796U 23078AF  23361.94049775 -.00000970  00000-0 -73474-4 0  9990,2 56796  69.9988 208.5689 0003018 266.5308  93.5506 14.98328536 32433,6950.197,96.107,574.16,569.965,0.0
